{"type": "FeatureCollection", "features": [ {"type": "Feature", "properties": {"norad_id": 66807, "name": "STARLINK-36000", "group": "last-30-days", "lat": -3.634363938948164, "lon": -145.76507397941097, "alt_km": 353.7869132907281, "timestamp": "2025-12-18T07:01:53.341215+00:00", "meta": {"OBJECT_NAME": "STARLINK-36000", "OBJECT_ID": "2025-278S", "EPOCH": "2025-12-17T22:00:01.999584", "MEAN_MOTION": 15.73395762, "ECCENTRICITY": 0.00018032, "INCLINATION": 42.999, "RA_OF_ASC_NODE": 220.4187, "ARG_OF_PERICENTER": 273.1123, "MEAN_ANOMALY": 108.7238, "EPHEMERIS_TYPE": 0, "CLASSIFICATION_TYPE": "U", "NORAD_CAT_ID": 66807, "ELEMENT_SET_NO": 999, "REV_AT_EPOCH": 384, "BSTAR": -0.015361706, "MEAN_MOTION_DOT": -0.01908398, "MEAN_MOTION_DDOT": 0}, "tle": {"line1": "1 66807U 25278S   25351.91668981 -.01908398  00000+0 -15362-1 0  9992", "line2": "2 66807  42.9990 220.4187 0001803 273.1123 108.7238 15.73395762  3849"}}, "geometry": {"type": "Point", "coordinates": [-145.76507397941097, -3.634363938948164]}}, {"type": "Feature", "properties": {"norad_id": 66808, "name": "STARLINK-36071", "group": "last-30-days", "lat": -2.3292234976619217, "lon": -144.3631143618854, "alt_km": 353.69574404226296, "timestamp": "2025-12-18T07:01:53.341224+00:00", "meta": {"OBJECT_NAME": "STARLINK-36071", "OBJECT_ID": "2025-278T", "EPOCH": "2025-12-17T22:00:01.999584", "MEAN_MOTION": 15.7339601, "ECCENTRICITY": 0.00017813, "INCLINATION": 42.999, "RA_OF_ASC_NODE": 220.4139, "ARG_OF_PERICENTER": 272.4405, "MEAN_ANOMALY": 111.3135, "EPHEMERIS_TYPE": 0, "CLASSIFICATION_TYPE": "U", "NORAD_CAT_ID": 66808, "ELEMENT_SET_NO": 999, "REV_AT_EPOCH": 379, "BSTAR": -0.015371289, "MEAN_MOTION_DOT": -0.01909423, "MEAN_MOTION_DDOT": 0}, "tle": {"line1": "1 66808U 25278T   25351.91668981 -.01909423  00000+0 -15371-1 0  9993", "line2": "2 66808  42.9990 220.4139 0001781 272.4405 111.3135 15.73396010  3794"}}, "geometry": {"type": "Point", "coordinates": [-144.3631143618854, -2.3292234976619217]}}, {"type": "Feature", "properties": {"norad_id": 66809, "name": "STARLINK-35979", "group": "last-30-days", "lat": 1.5922797022828332, "lon": -140.16714241891268, "alt_km": 353.31895260409874, "timestamp": "2025-12-18T07:01:53.341234+00:00", "meta": {"OBJECT_NAME": "STARLINK-35979", "OBJECT_ID": "2025-278U", "EPOCH": "2025-12-17T22:00:01.999584", "MEAN_MOTION": 15.7340185, "ECCENTRICITY": 0.00015743, "INCLINATION": 42.999, "RA_OF_ASC_NODE": 220.3985, "ARG_OF_PERICENTER": 273.4209, "MEAN_ANOMALY": 116.0861, "EPHEMERIS_TYPE": 0, "CLASSIFICATION_TYPE": "U", "NORAD_CAT_ID": 66809, "ELEMENT_SET_NO": 999, "REV_AT_EPOCH": 379, "BSTAR": -0.015445908, "MEAN_MOTION_DOT": -0.01957225, "MEAN_MOTION_DDOT": 0}, "tle": {"line1": "1 66809U 25278U   25351.91668981 -.01957225  00000+0 -15446-1 0  9990", "line2": "2 66809  42.9990 220.3985 0001574 273.4209 116.0861 15.73401850  3793"}}, "geometry": {"type": "Point", "coordinates": [-140.16714241891268, 1.5922797022828332]}}, {"type": "Feature", "properties": {"norad_id": 66810, "name": "STARLINK-36046", "group": "last-30-days", "lat": -1.0225038013019447, "lon": -142.9640676495146, "alt_km": 353.5741811779244, "timestamp": "2025-12-18T07:01:53.341244+00:00", "meta": {"OBJECT_NAME": "STARLINK-36046", "OBJECT_ID": "2025-278V", "EPOCH": "2025-12-17T22:00:01.999584", "MEAN_MOTION": 15.73396213, "ECCENTRICITY": 0.00017564, "INCLINATION": 42.999, "RA_OF_ASC_NODE": 220.4086, "ARG_OF_PERICENTER": 272.7216, "MEAN_ANOMALY": 112.9508, "EPHEMERIS_TYPE": 0, "CLASSIFICATION_TYPE": "U", "NORAD_CAT_ID": 66810, "ELEMENT_SET_NO": 999, "REV_AT_EPOCH": 356, "BSTAR": -0.015382115, "MEAN_MOTION_DOT": -0.01910575, "MEAN_MOTION_DDOT": 0}, "tle": {"line1": "1 66810U 25278V   25351.91668981 -.01910575  00000+0 -15382-1 0  9998", "line2": "2 66810  42.9990 220.4086 0001756 272.7216 112.9508 15.73396213  3564"}}, "geometry": {"type": "Point", "coordinates": [-142.9640676495146, -1.0225038013019447]}}, {"type": "Feature", "properties": {"norad_id": 66811, "name": "STARLINK-36045", "group": "last-30-days", "lat": 0.2845187976174859, "lon": -141.56590189087063, "alt_km": 353.4431282288406, "timestamp": "2025-12-18T07:01:53.341254+00:00", "meta": {"OBJECT_NAME": "STARLINK-36045", "OBJECT_ID": "2025-278W", "EPOCH": "2025-12-17T22:00:01.999584", "MEAN_MOTION": 15.73398247, "ECCENTRICITY": 0.00017568, "INCLINATION": 42.999, "RA_OF_ASC_NODE": 220.4039, "ARG_OF_PERICENTER": 273.0449, "MEAN_ANOMALY": 114.5433, "EPHEMERIS_TYPE": 0, "CLASSIFICATION_TYPE": "U", "NORAD_CAT_ID": 66811, "ELEMENT_SET_NO": 999, "REV_AT_EPOCH": 379, "BSTAR": -0.015402021, "MEAN_MOTION_DOT": -0.01912856, "MEAN_MOTION_DDOT": 0}, "tle": {"line1": "1 66811U 25278W   25351.91668981 -.01912856  00000+0 -15402-1 0  9996", "line2": "2 66811  42.9990 220.4039 0001756 273.0449 114.5433 15.73398247  3794"}}, "geometry": {"type": "Point", "coordinates": [-141.56590189087063, 0.2845187976174859]}}, {"type": "Feature", "properties": {"norad_id": 66812, "name": "STARLINK-36054", "group": "last-30-days", "lat": 2.897371493236195, "lon": -138.76742883484496, "alt_km": 353.1665895647993, "timestamp": "2025-12-18T07:01:53.341263+00:00", "meta": {"OBJECT_NAME": "STARLINK-36054", "OBJECT_ID": "2025-278X", "EPOCH": "2025-12-17T22:00:01.999584", "MEAN_MOTION": 15.73401836, "ECCENTRICITY": 0.00017559, "INCLINATION": 42.9988, "RA_OF_ASC_NODE": 220.3941, "ARG_OF_PERICENTER": 273.8564, "MEAN_ANOMALY": 117.5636, "EPHEMERIS_TYPE": 0, "CLASSIFICATION_TYPE": "U", "NORAD_CAT_ID": 66812, "ELEMENT_SET_NO": 999, "REV_AT_EPOCH": 379, "BSTAR": -0.015436979, "MEAN_MOTION_DOT": -0.01956374, "MEAN_MOTION_DDOT": 0}, "tle": {"line1": "1 66812U 25278X   25351.91668981 -.01956374  00000+0 -15437-1 0  9998", "line2": "2 66812  42.9988 220.3941 0001755 273.8564 117.5636 15.73401836  3795"}}, "geometry": {"type": "Point", "coordinates": [-138.76742883484496, 2.897371493236195]}}, {"type": "Feature", "properties": {"norad_id": 66813, "name": "STARLINK-36042", "group": "last-30-days", "lat": 4.201726809277881, "lon": -137.36439322429197, "alt_km": 353.03871893928135, "timestamp": "2025-12-18T07:01:53.341275+00:00", "meta": {"OBJECT_NAME": "STARLINK-36042", "OBJECT_ID": "2025-278Y", "EPOCH": "2025-12-17T22:00:01.999584", "MEAN_MOTION": 15.73394889, "ECCENTRICITY": 0.00018045, "INCLINATION": 42.9989, "RA_OF_ASC_NODE": 220.3887, "ARG_OF_PERICENTER": 273.6863, "MEAN_ANOMALY": 119.6548, "EPHEMERIS_TYPE": 0, "CLASSIFICATION_TYPE": "U", "NORAD_CAT_ID": 66813, "ELEMENT_SET_NO": 999, "REV_AT_EPOCH": 379, "BSTAR": -0.015371453, "MEAN_MOTION_DOT": -0.01909382, "MEAN_MOTION_DDOT": 0}, "tle": {"line1": "1 66813U 25278Y   25351.91668981 -.01909382  00000+0 -15371-1 0  9993", "line2": "2 66813  42.9989 220.3887 0001804 273.6863 119.6548 15.73394889  3795"}}, "geometry": {"type": "Point", "coordinates": [-137.36439322429197, 4.201726809277881]}}, {"type": "Feature", "properties": {"norad_id": 66814, "name": "STARLINK-35984", "group": "last-30-days", "lat": 11.946019750174958, "lon": -128.792048944323, "alt_km": 352.1846939798206, "timestamp": "2025-12-18T07:01:53.341285+00:00", "meta": {"OBJECT_NAME": "STARLINK-35984", "OBJECT_ID": "2025-278Z", "EPOCH": "2025-12-17T22:00:01.999584", "MEAN_MOTION": 15.73396152, "ECCENTRICITY": 0.00018323, "INCLINATION": 42.9991, "RA_OF_ASC_NODE": 220.3593, "ARG_OF_PERICENTER": 274.2752, "MEAN_ANOMALY": 130.5644, "EPHEMERIS_TYPE": 0, "CLASSIFICATION_TYPE": "U", "NORAD_CAT_ID": 66814, "ELEMENT_SET_NO": 999, "REV_AT_EPOCH": 387, "BSTAR": -0.015355644, "MEAN_MOTION_DOT": -0.01907803, "MEAN_MOTION_DDOT": 0}, "tle": {"line1": "1 66814U 25278Z   25351.91668981 -.01907803  00000+0 -15356-1 0  9993", "line2": "2 66814  42.9991 220.3593 0001832 274.2752 130.5644 15.73396152  3871"}}, "geometry": {"type": "Point", "coordinates": [-128.792048944323, 11.946019750174958]}}, {"type": "Feature", "properties": {"norad_id": 66815, "name": "STARLINK-35985", "group": "last-30-days", "lat": 10.669564629712578, "lon": -130.2464914627735, "alt_km": 352.32257674353696, "timestamp": "2025-12-18T07:01:53.341295+00:00", "meta": {"OBJECT_NAME": "STARLINK-35985", "OBJECT_ID": "2025-278AA", "EPOCH": "2025-12-17T22:00:01.999584", "MEAN_MOTION": 15.73396166, "ECCENTRICITY": 0.00017412, "INCLINATION": 42.9991, "RA_OF_ASC_NODE": 220.3636, "ARG_OF_PERICENTER": 274.4543, "MEAN_ANOMALY": 128.4723, "EPHEMERIS_TYPE": 0, "CLASSIFICATION_TYPE": "U", "NORAD_CAT_ID": 66815, "ELEMENT_SET_NO": 999, "REV_AT_EPOCH": 387, "BSTAR": -0.015388128, "MEAN_MOTION_DOT": -0.01911202, "MEAN_MOTION_DDOT": 0}, "tle": {"line1": "1 66815U 25278AA  25351.91668981 -.01911202  00000+0 -15388-1 0  9997", "line2": "2 66815  42.9991 220.3636 0001741 274.4543 128.4723 15.73396166  3878"}}, "geometry": {"type": "Point", "coordinates": [-130.2464914627735, 10.669564629712578]}}, {"type": "Feature", "properties": {"norad_id": 66816, "name": "STARLINK-36098", "group": "last-30-days", "lat": 5.503759995988949, "lon": -135.95574052894085, "alt_km": 352.9032638439685, "timestamp": "2025-12-18T07:01:53.341308+00:00", "meta": {"OBJECT_NAME": "STARLINK-36098", "OBJECT_ID": "2025-278AB", "EPOCH": "2025-12-17T22:00:01.999584", "MEAN_MOTION": 15.73404329, "ECCENTRICITY": 0.00017899, "INCLINATION": 42.999, "RA_OF_ASC_NODE": 220.384, "ARG_OF_PERICENTER": 273.9069, "MEAN_ANOMALY": 121.3464, "EPHEMERIS_TYPE": 0, "CLASSIFICATION_TYPE": "U", "NORAD_CAT_ID": 66816, "ELEMENT_SET_NO": 999, "REV_AT_EPOCH": 363, "BSTAR": -0.015472461, "MEAN_MOTION_DOT": -0.01960569, "MEAN_MOTION_DDOT": 0}, "tle": {"line1": "1 66816U 25278AB  25351.91668981 -.01960569  00000+0 -15472-1 0  9992", "line2": "2 66816  42.9990 220.3840 0001789 273.9069 121.3464 15.73404329  3633"}}, "geometry": {"type": "Point", "coordinates": [-135.95574052894085, 5.503759995988949]}}]}